[{"OBJECT_NAME":"STARLINK-31837","OBJECT_ID":"2024-183F","EPOCH":"2026-03-09T12:00:25.542432","MEAN_MOTION":15.30184239,"ECCENTRICITY":0.00012076,"INCLINATION":53.1605,"RA_OF_ASC_NODE":143.3068,"ARG_OF_PERICENTER":89.8625,"MEAN_ANOMALY":270.2514,"EPHEMERIS_TYPE":0,"CLASSIFICATION_TYPE":"U","NORAD_CAT_ID":61514,"ELEMENT_SET_NO":999,"REV_AT_EPOCH":7962,"BSTAR":1.184916e-5,"MEAN_MOTION_DOT":-8.0e-8,"MEAN_MOTION_DDOT":0},{"OBJECT_NAME":"LIZZIESAT-2 (LS-2)","OBJECT_ID":"2024-247G","EPOCH":"2026-03-09T11:47:37.199328","MEAN_MOTION":15.28222796,"ECCENTRICITY":0.00040927,"INCLINATION":44.9909,"RA_OF_ASC_NODE":117.0823,"ARG_OF_PERICENTER":327.5136,"MEAN_ANOMALY":32.5495,"EPHEMERIS_TYPE":0,"CLASSIFICATION_TYPE":"U","NORAD_CAT_ID":62383,"ELEMENT_SET_NO":999,"REV_AT_EPOCH":6771,"BSTAR":0.00034516624,"MEAN_MOTION_DOT":9.388e-5,"MEAN_MOTION_DDOT":0}]
